NORAD_CAT_ID,OBJECT_NAME,OBJECT_TYPE,EPOCH,MEAN_MOTION,ECCENTRICITY,INCLINATION,RA_OF_ASC_NODE,ARG_OF_PERICENTER,MEAN_ANOMALY,BSTAR,MEAN_MOTION_DOT,MEAN_MOTION_DDOT,TLE_LINE0,TLE_LINE1,TLE_LINE2,SEMIMAJOR_AXIS,PERIOD,APOGEE,PERIGEE,DECAYED
55314.0,STARLINK-5305,PAYLOAD,2023-06-22 05:50:10,15.69919491,0.0003775,69.9957,356.735,265.0906,94.9859,-3.5239e-06,-6.37e-06,0.0,0 STARLINK-5305,1 55314U 23010AX  23173.24317398 -.00000637  00000-0 -35239-5 0  9992,2 55314  69.9957 356.7350 0003775 265.0906  94.9859 15.69919491 24637,6737.264,91.724,361.673,356.586,0.0
55314.0,STARLINK-5305,PAYLOAD,2023-06-22 16:32:24,15.69937812,0.0003928,69.9976,355.4817,266.9272,93.1474,2.5783e-05,2.89e-05,0.0,0 STARLINK-5305,1 55314U 23010AX  23173.68917363  .00002890  00000-0  25783-4 0  9991,2 55314  69.9976 355.4817 0003928 266.9272  93.1474 15.69937812 24707,6737.212,91.723,361.723,356.431,0.0
55314.0,STARLINK-5305,PAYLOAD,2023-06-22 21:07:41,15.69919341,0.0003714,69.9973,354.9445,268.1002,91.9768,-2.6362e-06,-5.3e-06,0.0,0 STARLINK-5305,1 55314U 23010AX  23173.88034140 -.00000530  00000-0 -26362-5 0  9992,2 55314  69.9973 354.9445 0003714 268.1002  91.9768 15.69919341 24735,6737.265,91.724,361.632,356.628,0.0
55314.0,STARLINK-5305,PAYLOAD,2023-06-23 10:53:28,15.69908281,0.0004024,69.997,353.3318,269.4045,90.669,-1.9311e-05,-2.533e-05,0.0,0 STARLINK-5305,1 55314U 23010AX  23174.45380781 -.00002533  00000-0 -19311-4 0  9991,2 55314  69.9970 353.3318 0004024 269.4045  90.6690 15.69908281 24821,6737.296,91.725,361.872,356.45,0.0
55314.0,STARLINK-5305,PAYLOAD,2023-06-23 18:32:20,15.69843169,0.0003984,69.9974,352.4379,267.2694,92.8046,-8.9288e-05,-0.00010901,0.0,0 STARLINK-5305,1 55314U 23010AX  23174.77245615 -.00010901  00000-0 -89288-4 0  9990,2 55314  69.9974 352.4379 0003984 267.2694  92.8046 15.69843169 24879,6737.483,91.729,362.032,356.663,0.0
55314.0,STARLINK-5305,PAYLOAD,2023-06-23 21:35:45,15.69917657,0.0003855,69.9977,352.0785,270.5026,89.5728,-2.7195e-07,-2.46e-06,0.0,0 STARLINK-5305,1 55314U 23010AX  23174.89983233 -.00000246  00000-0 -27195-6 0  9990,2 55314  69.9977 352.0785 0003855 270.5026  89.5728 15.69917657 24898,6737.27,91.725,361.732,356.537,0.0
55314.0,STARLINK-5305,PAYLOAD,2023-06-24 05:14:30,15.69923767,0.0003336,69.9974,351.1823,277.3548,82.7269,3.6289e-05,4.153e-05,0.0,0 STARLINK-5305,1 55314U 23010AX  23175.21840810  .00004153  00000-0  36289-4 0  9991,2 55314  69.9974 351.1823 0003336 277.3548  82.7269 15.69923767 24946,6737.252,91.724,361.365,356.87,0.0
55314.0,STARLINK-5305,PAYLOAD,2023-06-24 14:24:54,15.70025734,0.0003678,69.9977,350.1069,268.3305,91.7469,0.0001093,0.00013006,0.0,0 STARLINK-5305,1 55314U 23010AX  23175.60062767  .00013006  00000-0  10930-3 0  9992,2 55314  69.9977 350.1069 0003678 268.3305  91.7469 15.70025734 25009,6736.96,91.718,361.303,356.348,0.0
55314.0,STARLINK-5305,PAYLOAD,2023-06-24 22:03:42,15.69983563,0.0003815,69.9975,349.2123,273.4267,86.6493,5.5661e-05,6.502e-05,0.0,0 STARLINK-5305,1 55314U 23010AX  23175.91923900  .00006502  00000-0  55661-4 0  9995,2 55314  69.9975 349.2123 0003815 273.4267  86.6493 15.69983563 25050,6737.081,91.721,361.516,356.376,0.0
55314.0,STARLINK-5305,PAYLOAD,2023-06-25 17:56:32,15.69892959,0.0003489,69.9977,346.8817,266.0858,93.9939,9.8413e-05,0.00011622,0.0,0 STARLINK-5305,1 55314U 23010AX  23176.74760301  .00011622  00000-0  98413-4 0  9992,2 55314  69.9977 346.8817 0003489 266.0858  93.9939 15.69892959 25184,6737.34,91.726,361.556,356.855,0.0
55314.0,STARLINK-5305,PAYLOAD,2023-06-25 21:00:05,15.69864667,0.0003435,69.9977,346.5235,269.0546,91.0256,6.2087e-05,7.241e-05,0.0,0 STARLINK-5305,1 55314U 23010AX  23176.87506296  .00007241  00000-0  62087-4 0  9997,2 55314  69.9977 346.5235 0003435 269.0546  91.0256 15.69864667 25202,6737.421,91.728,361.6,356.972,0.0
55314.0,STARLINK-5305,PAYLOAD,2023-06-26 13:49:18,15.69952854,0.000273,69.9969,344.5531,262.0597,98.0288,-3.1569e-05,-4.011e-05,0.0,0 STARLINK-5305,1 55314U 23010AX  23177.57591136 -.00004011  00000-0 -31569-4 0  9997,2 55314  69.9969 344.5531 0002730 262.0597  98.0288 15.69952854 25316,6737.169,91.722,360.873,357.195,0.0
55314.0,STARLINK-5305,PAYLOAD,2023-06-27 20:24:20,15.6993595,0.0003779,69.9973,340.9704,270.7136,89.3626,9.3821e-06,9.16e-06,0.0,0 STARLINK-5305,1 55314U 23010AX  23178.85023550  .00000916  00000-0  93821-5 0  9997,2 55314  69.9973 340.9704 0003779 270.7136  89.3626 15.69935950 25511,6737.217,91.723,361.628,356.536,0.0
55314.0,STARLINK-5305,PAYLOAD,2023-06-28 10:10:07,15.69922267,0.0003224,69.9968,339.3574,274.5204,85.5623,1.6839e-06,-1e-07,0.0,0 STARLINK-5305,1 55314U 23010AX  23179.42369805 -.00000010  00000-0  16839-5 0  9997,2 55314  69.9968 339.3574 0003224 274.5204  85.5623 15.69922267 25607,6737.256,91.724,361.293,356.949,0.0
55314.0,STARLINK-5305,PAYLOAD,2023-06-29 10:38:09,15.69930272,0.0003712,69.9971,336.4925,273.4579,86.6192,-2.4242e-06,-5.05e-06,0.0,0 STARLINK-5305,1 55314U 23010AX  23180.44316146 -.00000505  00000-0 -24242-5 0  9998,2 55314  69.9971 336.4925 0003712 273.4579  86.6192 15.69930272 25769,6737.233,91.724,361.599,356.598,0.0
55314.0,STARLINK-5305,PAYLOAD,2023-06-30 14:09:41,15.69916835,0.0003809,69.997,333.2688,274.7968,85.2792,-3.2111e-06,-5.99e-06,0.0,0 STARLINK-5305,1 55314U 23010AX  23181.59006924 -.00000599  00000-0 -32111-5 0  9992,2 55314  69.9970 333.2688 0003809 274.7968  85.2792 15.69916835 25942,6737.272,91.725,361.703,356.571,0.0
55314.0,STARLINK-5305,PAYLOAD,2023-07-01 17:41:12,15.69937016,0.0003732,69.9975,330.043,271.9244,88.1524,1.0705e-05,1.075e-05,0.0,0 STARLINK-5305,1 55314U 23010AX  23182.73695584  .00001075  00000-0  10705-4 0  9997,2 55314  69.9975 330.0430 0003732 271.9244  88.1524 15.69937016 26128,6737.214,91.723,361.594,356.565,0.0
55314.0,STARLINK-5305,PAYLOAD,2023-07-02 10:30:30,15.69917195,0.0003503,69.9974,328.0717,267.639,92.4405,5.7384e-06,4.77e-06,0.0,0 STARLINK-5305,1 55314U 23010AX  23183.43785434  .00000477  00000-0  57384-5 0  9999,2 55314  69.9974 328.0717 0003503 267.6390  92.4405 15.69917195 26236,6737.271,91.725,361.496,356.776,0.0
55314.0,STARLINK-5305,PAYLOAD,2023-07-03 12:30:17,15.69926453,0.0003606,69.9976,325.0258,265.4248,94.6536,1.0066e-06,-9.2e-07,0.0,0 STARLINK-5305,1 55314U 23010AX  23184.52103358 -.00000092  00000-0  10066-5 0  9999,2 55314  69.9976 325.0258 0003606 265.4248  94.6536 15.69926453 26402,6737.244,91.724,361.539,356.68,0.0
55314.0,STARLINK-5305,PAYLOAD,2023-07-04 16:01:49,15.69926729,0.0003875,69.9979,321.8021,270.713,89.3621,1.1103e-05,1.122e-05,0.0,0 STARLINK-5305,1 55314U 23010AX  23185.66793269  .00001122  00000-0  11103-4 0  9997,2 55314  69.9979 321.8021 0003875 270.7130  89.3621 15.69926729 26585,6737.244,91.724,361.719,356.498,0.0
55314.0,STARLINK-5305,PAYLOAD,2023-07-05 05:47:36,15.69915074,0.0003639,69.9976,320.1891,268.7323,91.3456,7.1368e-07,-1.27e-06,0.0,0 STARLINK-5305,1 55314U 23010AX  23186.24139142 -.00000127  00000-0  71368-6 0  9992,2 55314  69.9976 320.1891 0003639 268.7323  91.3456 15.69915074 26678,6737.277,91.725,361.594,356.69,0.0
55314.0,STARLINK-5305,PAYLOAD,2023-07-05 14:58:06,15.69927309,0.0003561,69.9971,319.1131,265.8008,94.2781,7.3277e-06,6.68e-06,0.0,0 STARLINK-5305,1 55314U 23010AX  23186.62368351  .00000668  00000-0  73277-5 0  9999,2 55314  69.9971 319.1131 0003561 265.8008  94.2781 15.69927309 26734,6737.242,91.724,361.506,356.708,0.0
55314.0,STARLINK-5305,PAYLOAD,2023-07-06 15:26:07,15.69930643,0.0003936,69.9978,316.2487,268.9552,91.1192,8.4581e-06,8.04e-06,0.0,0 STARLINK-5305,1 55314U 23010AX  23187.64314807  .00000804  00000-0  84581-5 0  9991,2 55314  69.9978 316.2487 0003936 268.9552  91.1192 15.69930643 26891,6737.232,91.724,361.749,356.446,0.0
55314.0,STARLINK-5305,PAYLOAD,2023-07-07 02:08:24,15.69916625,0.0003326,69.9984,314.9936,272.9272,87.1543,2.7816e-06,1.22e-06,0.0,0 STARLINK-5305,1 55314U 23010AX  23188.08917481  .00000122  00000-0  27816-5 0  9998,2 55314  69.9984 314.9936 0003326 272.9272  87.1543 15.69916625 26966,6737.273,91.725,361.378,356.897,0.0
55314.0,STARLINK-5305,PAYLOAD,2023-07-07 17:25:55,15.69926451,0.0003407,69.9986,313.2034,267.2121,92.8684,1.0669e-05,1.07e-05,0.0,0 STARLINK-5305,1 55314U 23010AX  23188.72633593  .00001070  00000-0  10669-4 0  9998,2 55314  69.9986 313.2034 0003407 267.2121  92.8684 15.69926451 27068,6737.244,91.724,361.405,356.814,0.0
55314.0,STARLINK-5305,PAYLOAD,2023-07-08 19:25:42,15.69923785,0.0003542,69.9982,310.1564,270.7874,89.2915,9.6672e-06,9.5e-06,0.0,0 STARLINK-5305,1 55314U 23010AX  23189.80952375  .00000950  00000-0  96672-5 0  9995,2 55314  69.9982 310.1564 0003542 270.7874  89.2915 15.69923785 27235,6737.252,91.724,361.503,356.731,0.0
55314.0,STARLINK-5305,PAYLOAD,2023-07-10 09:39:31,15.69908101,0.0003611,69.9989,305.6785,272.2071,87.8711,1.3861e-05,1.453e-05,0.0,0 STARLINK-5305,1 55314U 23010AX  23191.40244990  .00001453  00000-0  13861-4 0  9998,2 55314  69.9989 305.6785 0003611 272.2071  87.8711 15.69908101 27489,6737.297,91.725,361.595,356.729,0.0
55314.0,STARLINK-5305,PAYLOAD,2023-07-10 17:18:16,15.69924908,0.000284,69.9975,304.7812,258.548,101.5397,5.6135e-06,4.62e-06,0.0,0 STARLINK-5305,1 55314U 23010AX  23191.72102581  .00000462  00000-0  56135-5 0  9993,2 55314  69.9975 304.7812 0002840 258.5480 101.5397 15.69924908 27532,6737.249,91.724,361.027,357.2,0.0
55314.0,STARLINK-5305,PAYLOAD,2023-07-11 17:46:18,15.69932286,0.0003294,69.9985,301.9172,262.7074,97.3747,1.44e-05,1.52e-05,0.0,0 STARLINK-5305,1 55314U 23010AX  23192.74048648  .00001520  00000-0  14400-4 0  9993,2 55314  69.9985 301.9172 0003294 262.7074  97.3747 15.69932286 27697,6737.228,91.724,361.312,356.873,0.0
55314.0,STARLINK-5305,PAYLOAD,2023-07-12 06:00:19,15.69914637,0.0003237,69.9998,300.4836,260.6624,99.4205,1.3781e-05,1.444e-05,0.0,0 STARLINK-5305,1 55314U 23010AX  23193.25022962  .00001444  00000-0  13781-4 0  9997,2 55314  69.9998 300.4836 0003237 260.6624  99.4205 15.69914637 27778,6737.278,91.725,361.324,356.962,0.0
